YAOGAN-30 11B           
1 49028U 21065C   26068.68875565  .00004364  00000+0  32720-3 0  9992
2 49028  34.9931 159.0081 0000960 264.9738  95.0861 15.02134262253658
STARLINK-30507          
1 57982U 23151U   26068.12650165 -.00000165  00000+0  28914-5 0  9992
2 57982  43.0052 355.0170 0001030 262.7137  97.3588 15.02538442135496
